{
  "type": "FeatureCollection",
  "features": [
    {
      "type": "Feature",
      "properties": {
        "norad_id": 43823,
        "name": "GEO-KOMPSAT-2A",
        "group": "weather",
        "lat": -0.03595617871358711,
        "lon": -11.373393083715868,
        "alt_km": 35788.28578580399,
        "timestamp": "2025-12-04T09:47:37.166186+00:00",
        "meta_object_name": "GEO-KOMPSAT-2A",
        "meta_object_id": "2018-100A",
        "meta_epoch": "2025-12-03T17:35:40.686720",
        "meta_mean_motion": 1.00269729,
        "meta_eccentricity": 5.41e-05,
        "meta_inclination": 0.0596,
        "meta_ra_of_asc_node": 121.241,
        "meta_arg_of_pericenter": 95.287,
        "meta_mean_anomaly": 248.4703,
        "meta_ephemeris_type": 0,
        "meta_classification_type": "U",
        "meta_norad_cat_id": 43823,
        "meta_element_set_no": 999,
        "meta_rev_at_epoch": 2567,
        "meta_bstar": 0,
        "meta_mean_motion_dot": -3.26e-06,
        "meta_mean_motion_ddot": 0,
        "tle_line1": "1 43823U 18100A   25337.73310980 -.00000326  00000+0  00000+0 0  9991",
        "tle_line2": "2 43823   0.0596 121.2410 0000541  95.2870 248.4703  1.00269729 25678"
      },
      "geometry": {
        "type": "Point",
        "coordinates": [
          -11.373393083715868,
          -0.03595617871358711
        ]
      }
    },
    {
      "type": "Feature",
      "properties": {
        "norad_id": 44387,
        "name": "METEOR-M2 2",
        "group": "weather",
        "lat": 20.737706697971046,
        "lon": 141.43521030750816,
        "alt_km": 810.1185543230213,
        "timestamp": "2025-12-04T09:47:37.166198+00:00",
        "meta_object_name": "METEOR-M2 2",
        "meta_object_id": "2019-038A",
        "meta_epoch": "2025-12-04T05:40:41.038176",
        "meta_mean_motion": 14.24285962,
        "meta_eccentricity": 9.19e-05,
        "meta_inclination": 98.8964,
        "meta_ra_of_asc_node": 317.8618,
        "meta_arg_of_pericenter": 165.2797,
        "meta_mean_anomaly": 194.8408,
        "meta_ephemeris_type": 0,
        "meta_classification_type": "U",
        "meta_norad_cat_id": 44387,
        "meta_element_set_no": 999,
        "meta_rev_at_epoch": 33354,
        "meta_bstar": 0.0001662,
        "meta_mean_motion_dot": 3.38e-06,
        "meta_mean_motion_ddot": 0,
        "tle_line1": "1 44387U 19038A   25338.23658609  .00000338  00000+0  16620-3 0  9998",
        "tle_line2": "2 44387  98.8964 317.8618 0000919 165.2797 194.8408 14.24285962333547"
      },
      "geometry": {
        "type": "Point",
        "coordinates": [
          141.43521030750816,
          20.737706697971046
        ]
      }
    },
    {
      "type": "Feature",
      "properties": {
        "norad_id": 47719,
        "name": "ARKTIKA-M 1",
        "group": "weather",
        "lat": 60.445877864088914,
        "lon": -157.90553128948895,
        "alt_km": 36112.822401508885,
        "timestamp": "2025-12-04T09:47:37.166212+00:00",
        "meta_object_name": "ARKTIKA-M 1",
        "meta_object_id": "2021-016A",
        "meta_epoch": "2025-12-01T02:41:41.634816",
        "meta_mean_motion": 2.00613156,
        "meta_eccentricity": 0.71974708,
        "meta_inclination": 63.1756,
        "meta_ra_of_asc_node": 85.6045,
        "meta_arg_of_pericenter": 269.084,
        "meta_mean_anomaly": 15.7076,
        "meta_ephemeris_type": 0,
        "meta_classification_type": "U",
        "meta_norad_cat_id": 47719,
        "meta_element_set_no": 999,
        "meta_rev_at_epoch": 3481,
        "meta_bstar": 0,
        "meta_mean_motion_dot": -1.2e-07,
        "meta_mean_motion_ddot": 0,
        "tle_line1": "1 47719U 21016A   25335.11228744 -.00000012  00000+0  00000+0 0  9997",
        "tle_line2": "2 47719  63.1756  85.6045 7197470 269.0840  15.7076  2.00613156 34816"
      },
      "geometry": {
        "type": "Point",
        "coordinates": [
          -157.90553128948895,
          60.445877864088914
        ]
      }
    },
    {
      "type": "Feature",
      "properties": {
        "norad_id": 49008,
        "name": "FENGYUN 3E",
        "group": "weather",
        "lat": -68.6169813308193,
        "lon": 135.87258539390928,
        "alt_km": 832.822964535073,
        "timestamp": "2025-12-04T09:47:37.166224+00:00",
        "meta_object_name": "FENGYUN 3E",
        "meta_object_id": "2021-062A",
        "meta_epoch": "2025-12-03T22:28:13.847232",
        "meta_mean_motion": 14.19878233,
        "meta_eccentricity": 7.384e-05,
        "meta_inclination": 98.7476,
        "meta_ra_of_asc_node": 338.5619,
        "meta_arg_of_pericenter": 322.2311,
        "meta_mean_anomaly": 37.8814,
        "meta_ephemeris_type": 0,
        "meta_classification_type": "U",
        "meta_norad_cat_id": 49008,
        "meta_element_set_no": 999,
        "meta_rev_at_epoch": 22887,
        "meta_bstar": 5.6923169e-05,
        "meta_mean_motion_dot": 7.7e-07,
        "meta_mean_motion_ddot": 0,
        "tle_line1": "1 49008U 21062A   25337.93627138  .00000077  00000+0  56923-4 0  9993",
        "tle_line2": "2 49008  98.7476 338.5619 0000738 322.2311  37.8814 14.19878233228875"
      },
      "geometry": {
        "type": "Point",
        "coordinates": [
          135.87258539390928,
          -68.6169813308193
        ]
      }
    },
    {
      "type": "Feature",
      "properties": {
        "norad_id": 51850,
        "name": "GOES 18",
        "group": "weather",
        "lat": -0.0008245231574198429,
        "lon": 83.36438769446397,
        "alt_km": 35789.38903940671,
        "timestamp": "2025-12-04T09:47:37.166237+00:00",
        "meta_object_name": "GOES 18",
        "meta_object_id": "2022-021A",
        "meta_epoch": "2025-12-03T16:30:38.739168",
        "meta_mean_motion": 1.00270453,
        "meta_eccentricity": 7.983e-05,
        "meta_inclination": 0.0031,
        "meta_ra_of_asc_node": 64.4496,
        "meta_arg_of_pericenter": 225.9944,
        "meta_mean_anomaly": 252.9877,
        "meta_ephemeris_type": 0,
        "meta_classification_type": "U",
        "meta_norad_cat_id": 51850,
        "meta_element_set_no": 999,
        "meta_rev_at_epoch": 463,
        "meta_bstar": 0,
        "meta_mean_motion_dot": 1.14e-06,
        "meta_mean_motion_ddot": 0,
        "tle_line1": "1 51850U 22021A   25337.68794837  .00000114  00000+0  00000+0 0  9992",
        "tle_line2": "2 51850   0.0031  64.4496 0000798 225.9944 252.9877  1.00270453  4632"
      },
      "geometry": {
        "type": "Point",
        "coordinates": [
          83.36438769446397,
          -0.0008245231574198429
        ]
      }
    },
    {
      "type": "Feature",
      "properties": {
        "norad_id": 54234,
        "name": "NOAA 21 (JPSS-2)",
        "group": "weather",
        "lat": -80.89089128743488,
        "lon": 21.08355372808773,
        "alt_km": 835.8092479923862,
        "timestamp": "2025-12-04T09:47:37.166248+00:00",
        "meta_object_name": "NOAA 21 (JPSS-2)",
        "meta_object_id": "2022-150A",
        "meta_epoch": "2025-12-04T01:46:14.916000",
        "meta_mean_motion": 14.19520426,
        "meta_eccentricity": 0.0002524,
        "meta_inclination": 98.7449,
        "meta_ra_of_asc_node": 274.4907,
        "meta_arg_of_pericenter": 54.3468,
        "meta_mean_anomaly": 305.7943,
        "meta_ephemeris_type": 0,
        "meta_classification_type": "U",
        "meta_norad_cat_id": 54234,
        "meta_element_set_no": 999,
        "meta_rev_at_epoch": 15886,
        "meta_bstar": 0.00011835,
        "meta_mean_motion_dot": 2.06e-06,
        "meta_mean_motion_ddot": 0,
        "tle_line1": "1 54234U 22150A   25338.07378375  .00000206  00000+0  11835-3 0  9997",
        "tle_line2": "2 54234  98.7449 274.4907 0002524  54.3468 305.7943 14.19520426158860"
      },
      "geometry": {
        "type": "Point",
        "coordinates": [
          21.08355372808773,
          -80.89089128743488
        ]
      }
    },
    {
      "type": "Feature",
      "properties": {
        "norad_id": 54743,
        "name": "METEOSAT-12 (MTG-I1)",
        "group": "weather",
        "lat": -0.15014169258863205,
        "lon": -139.9229645176659,
        "alt_km": 35779.758677707556,
        "timestamp": "2025-12-04T09:47:37.166263+00:00",
        "meta_object_name": "METEOSAT-12 (MTG-I1)",
        "meta_object_id": "2022-170C",
        "meta_epoch": "2025-12-03T18:42:38.603808",
        "meta_mean_motion": 1.00273728,
        "meta_eccentricity": 0.00015205,
        "meta_inclination": 0.7181,
        "meta_ra_of_asc_node": 30.0784,
        "meta_arg_of_pericenter": 216.336,
        "meta_mean_anomaly": 106.8238,
        "meta_ephemeris_type": 0,
        "meta_classification_type": "U",
        "meta_norad_cat_id": 54743,
        "meta_element_set_no": 999,
        "meta_rev_at_epoch": 1101,
        "meta_bstar": 0,
        "meta_mean_motion_dot": 1e-07,
        "meta_mean_motion_ddot": 0,
        "tle_line1": "1 54743U 22170C   25337.77961347  .00000010  00000+0  00000+0 0  9998",
        "tle_line2": "2 54743   0.7181  30.0784 0001520 216.3360 106.8238  1.00273728 11014"
      },
      "geometry": {
        "type": "Point",
        "coordinates": [
          -139.9229645176659,
          -0.15014169258863205
        ]
      }
    }
  ]
}